{
  "norad_id": 53254,
  "name": "STARLINK-4134",
  "history": [
    {
      "epoch": "2026-03-28T18:49:01.396416",
      "apogee_km": 540.6278261710013,
      "perigee_km": 538.8520071664916,
      "latitude_deg": 45.914731919635145,
      "longitude_deg": -59.33178176009096,
      "semi_major_axis_km": 6917.876916668746,
      "eccentricity": 0.00012835,
      "inclination_deg": 53.2169,
      "raan_deg": 108.4128,
      "arg_perigee_deg": 85.7686,
      "mean_anomaly_deg": 274.3453,
      "mean_motion_rev_day": 15.08841136
    },
    {
      "epoch": "2026-03-29T04:21:20.202912",
      "apogee_km": 540.6367673233635,
      "perigee_km": 538.8478037401255,
      "latitude_deg": 43.74359739677186,
      "longitude_deg": -21.177552320063114,
      "semi_major_axis_km": 6917.879285531744,
      "eccentricity": 0.0001293,
      "inclination_deg": 53.2166,
      "raan_deg": 106.6286,
      "arg_perigee_deg": 85.8546,
      "mean_anomaly_deg": 274.2594,
      "mean_motion_rev_day": 15.08840361
    }
  ]
}